{
  "type": "FeatureCollection",
  "features": [
    {
      "type": "Feature",
      "properties": {
        "OBJECT_NAME": "BEIDOU-3 G4 (C62)",
        "OBJECT_ID": "2023-066A",
        "EPOCH": "2025-11-30T04:19:50.747808",
        "MEAN_MOTION": 1.00271352,
        "ECCENTRICITY": 0.0003484,
        "INCLINATION": 0.8448,
        "RA_OF_ASC_NODE": 300.9375,
        "ARG_OF_PERICENTER": 231.76,
        "MEAN_ANOMALY": 121.6553,
        "EPHEMERIS_TYPE": 0,
        "CLASSIFICATION_TYPE": "U",
        "NORAD_CAT_ID": 56564,
        "ELEMENT_SET_NO": 999,
        "REV_AT_EPOCH": 939,
        "BSTAR": 0,
        "MEAN_MOTION_DOT": -9e-07,
        "MEAN_MOTION_DDOT": 0,
        "norad_id": 56564,
        "name": "BEIDOU-3 G4 (C62)",
        "group": "beidou",
        "longitude_deg": NaN,
        "latitude_deg": NaN,
        "alt_km": NaN,
        "orbit_class": "HEO",
        "timestamp": "2025-11-30T08:43:09.336837+00:00"
      },
      "geometry": {
        "type": "Point",
        "coordinates": [
          NaN,
          NaN
        ]
      }
    },
    {
      "type": "Feature",
      "properties": {
        "OBJECT_NAME": "BEIDOU-3 M28 (C50)",
        "OBJECT_ID": "2023-207A",
        "EPOCH": "2025-11-27T22:33:52.745184",
        "MEAN_MOTION": 1.86229668,
        "ECCENTRICITY": 0.00018154,
        "INCLINATION": 55.5716,
        "RA_OF_ASC_NODE": 69.1028,
        "ARG_OF_PERICENTER": 262.146,
        "MEAN_ANOMALY": 97.8458,
        "EPHEMERIS_TYPE": 0,
        "CLASSIFICATION_TYPE": "U",
        "NORAD_CAT_ID": 58654,
        "ELEMENT_SET_NO": 999,
        "REV_AT_EPOCH": 1309,
        "BSTAR": 0,
        "MEAN_MOTION_DOT": -1.9e-07,
        "MEAN_MOTION_DDOT": 0,
        "norad_id": 58654,
        "name": "BEIDOU-3 M28 (C50)",
        "group": "beidou",
        "longitude_deg": NaN,
        "latitude_deg": NaN,
        "alt_km": NaN,
        "orbit_class": "HEO",
        "timestamp": "2025-11-30T08:43:09.346678+00:00"
      },
      "geometry": {
        "type": "Point",
        "coordinates": [
          NaN,
          NaN
        ]
      }
    },
    {
      "type": "Feature",
      "properties": {
        "OBJECT_NAME": "BEIDOU-3 M26 (C48)",
        "OBJECT_ID": "2023-207B",
        "EPOCH": "2025-11-29T21:15:29.561184",
        "MEAN_MOTION": 1.86231138,
        "ECCENTRICITY": 0.0003368,
        "INCLINATION": 55.5753,
        "RA_OF_ASC_NODE": 69.0231,
        "ARG_OF_PERICENTER": 249.5577,
        "MEAN_ANOMALY": 110.4138,
        "EPHEMERIS_TYPE": 0,
        "CLASSIFICATION_TYPE": "U",
        "NORAD_CAT_ID": 58655,
        "ELEMENT_SET_NO": 999,
        "REV_AT_EPOCH": 1311,
        "BSTAR": 0,
        "MEAN_MOTION_DOT": -3.1e-07,
        "MEAN_MOTION_DDOT": 0,
        "norad_id": 58655,
        "name": "BEIDOU-3 M26 (C48)",
        "group": "beidou",
        "longitude_deg": NaN,
        "latitude_deg": NaN,
        "alt_km": NaN,
        "orbit_class": "HEO",
        "timestamp": "2025-11-30T08:43:09.346686+00:00"
      },
      "geometry": {
        "type": "Point",
        "coordinates": [
          NaN,
          NaN
        ]
      }
    },
    {
      "type": "Feature",
      "properties": {
        "OBJECT_NAME": "BEIDOU-3 M25 (C47)",
        "OBJECT_ID": "2024-168B",
        "EPOCH": "2025-11-29T23:32:21.813792",
        "MEAN_MOTION": 1.8622988,
        "ECCENTRICITY": 0.0005581,
        "INCLINATION": 54.6539,
        "RA_OF_ASC_NODE": 309.163,
        "ARG_OF_PERICENTER": 293.1979,
        "MEAN_ANOMALY": 247.4487,
        "EPHEMERIS_TYPE": 0,
        "CLASSIFICATION_TYPE": "U",
        "NORAD_CAT_ID": 61186,
        "ELEMENT_SET_NO": 999,
        "REV_AT_EPOCH": 807,
        "BSTAR": 0,
        "MEAN_MOTION_DOT": -5e-07,
        "MEAN_MOTION_DDOT": 0,
        "norad_id": 61186,
        "name": "BEIDOU-3 M25 (C47)",
        "group": "beidou",
        "longitude_deg": NaN,
        "latitude_deg": NaN,
        "alt_km": NaN,
        "orbit_class": "HEO",
        "timestamp": "2025-11-30T08:43:09.359024+00:00"
      },
      "geometry": {
        "type": "Point",
        "coordinates": [
          NaN,
          NaN
        ]
      }
    },
    {
      "type": "Feature",
      "properties": {
        "OBJECT_NAME": "BEIDOU-3 M27 (C49)",
        "OBJECT_ID": "2024-168C",
        "EPOCH": "2025-11-30T05:56:52.213056",
        "MEAN_MOTION": 1.86230003,
        "ECCENTRICITY": 0.0002283,
        "INCLINATION": 54.6492,
        "RA_OF_ASC_NODE": 309.1374,
        "ARG_OF_PERICENTER": 326.6746,
        "MEAN_ANOMALY": 167.929,
        "EPHEMERIS_TYPE": 0,
        "CLASSIFICATION_TYPE": "U",
        "NORAD_CAT_ID": 61187,
        "ELEMENT_SET_NO": 999,
        "REV_AT_EPOCH": 555,
        "BSTAR": 0,
        "MEAN_MOTION_DOT": -5.1e-07,
        "MEAN_MOTION_DDOT": 0,
        "norad_id": 61187,
        "name": "BEIDOU-3 M27 (C49)",
        "group": "beidou",
        "longitude_deg": NaN,
        "latitude_deg": NaN,
        "alt_km": NaN,
        "orbit_class": "HEO",
        "timestamp": "2025-11-30T08:43:09.359032+00:00"
      },
      "geometry": {
        "type": "Point",
        "coordinates": [
          NaN,
          NaN
        ]
      }
    }
  ]
}