BEIDOU-3 G4 (C62)       
1 56564U 23066A   25334.18044847 -.00000090  00000+0  00000+0 0  9994
2 56564   0.8448 300.9375 0003484 231.7600 121.6553  1.00271352  9392
BEIDOU-3 M28 (C50)      
1 58654U 23207A   25331.94019381 -.00000019  00000+0  00000+0 0  9990
2 58654  55.5716  69.1028 0001815 262.1460  97.8458  1.86229668 13093
BEIDOU-3 M26 (C48)      
1 58655U 23207B   25333.88575881 -.00000031  00000+0  00000+0 0  9992
2 58655  55.5753  69.0231 0003368 249.5577 110.4138  1.86231138 13118
BEIDOU-3 M25 (C47)      
1 61186U 24168B   25333.98080803 -.00000050  00000+0  00000+0 0  9999
2 61186  54.6539 309.1630 0005581 293.1979 247.4487  1.86229880  8072
BEIDOU-3 M27 (C49)      
1 61187U 24168C   25334.24782654 -.00000051  00000+0  00000+0 0  9994
2 61187  54.6492 309.1374 0002283 326.6746 167.9290  1.86230003  5553
